EXCITE                  
1 43819U 18099BP  26068.69809098  .00002813  00000+0  19631-3 0  9999
2 43819  97.4107 111.3606 0017626 337.4818  22.5634 15.06036758396774
STARLINK-3400           
1 51128U 22005AA  26068.86741270 -.00000069  00000+0  13723-4 0  9998
2 51128  53.2183 298.3269 0001250  93.2131 266.9004 15.08832435228757
